[
    {
        "Altitude(m)": 702690.4611506741,
        "Argument of Periapsis(deg)": 0.0011390121186627068,
        "Eccentricity": 0.0,
        "Inclination(deg)": 45.0,
        "Latitude(deg)": 10.693680629536003,
        "Longitude(deg)": -35.875572545152416,
        "Mean Anomaly(deg)": -195.21027833525193,
        "RAAN(deg)": 254.9989248058542,
        "Satellite Name": "Constellation 1 1132",
        "Satellite Number": 1132,
        "Semi-Major Axis(m)": 7083131.272910544,
        "Time(s)": 19
    },
    {
        "Altitude(m)": 702690.9799776989,
        "Argument of Periapsis(deg)": 0.0011989601249081123,
        "Eccentricity": 0.0,
        "Inclination(deg)": 45.0,
        "Latitude(deg)": 10.6512325935739,
        "Longitude(deg)": -35.83529888075321,
        "Mean Anomaly(deg)": -195.14957719500197,
        "RAAN(deg)": 254.99886821668863,
        "Satellite Name": "Constellation 1 1132",
        "Satellite Number": 1132,
        "Semi-Major Axis(m)": 7083131.272910544,
        "Time(s)": 20
    },
    {
        "Altitude(m)": 702691.5182005655,
        "Argument of Periapsis(deg)": 0.001258908131153518,
        "Eccentricity": 0.0,
        "Inclination(deg)": 45.0,
        "Latitude(deg)": 10.60877820148225,
        "Longitude(deg)": -35.79503753736413,
        "Mean Anomaly(deg)": -195.0888760547521,
        "RAAN(deg)": 254.99881162752308,
        "Satellite Name": "Constellation 1 1132",
        "Satellite Number": 1132,
        "Semi-Major Axis(m)": 7083131.272910544,
        "Time(s)": 21
    },
    {
        "Altitude(m)": 702692.0758352117,
        "Argument of Periapsis(deg)": 0.0013188561373989236,
        "Eccentricity": 0.0,
        "Inclination(deg)": 45.0,
        "Latitude(deg)": 10.566317481114387,
        "Longitude(deg)": -35.754788631517705,
        "Mean Anomaly(deg)": -195.02817491450216,
        "RAAN(deg)": 254.99875503835747,
        "Satellite Name": "Constellation 1 1132",
        "Satellite Number": 1132,
        "Semi-Major Axis(m)": 7083131.272910544,
        "Time(s)": 22
    },
    {
        "Altitude(m)": 702692.652897503,
        "Argument of Periapsis(deg)": 0.0013788041436443293,
        "Eccentricity": 0.0,
        "Inclination(deg)": 45.0,
        "Latitude(deg)": 10.523850460300714,
        "Longitude(deg)": -35.71455177548017,
        "Mean Anomaly(deg)": -194.9674737742523,
        "RAAN(deg)": 254.99869844919192,
        "Satellite Name": "Constellation 1 1132",
        "Satellite Number": 1132,
        "Semi-Major Axis(m)": 7083131.272910544,
        "Time(s)": 23
    },
    {
        "Altitude(m)": 702693.2494032148,
        "Argument of Periapsis(deg)": 0.001438752149889735,
        "Eccentricity": 0.0,
        "Inclination(deg)": 45.0,
        "Latitude(deg)": 10.481377166847238,
        "Longitude(deg)": -35.674327085833504,
        "Mean Anomaly(deg)": -194.90677263400238,
        "RAAN(deg)": 254.99864186002634,
        "Satellite Name": "Constellation 1 1132",
        "Satellite Number": 1132,
        "Semi-Major Axis(m)": 7083131.272910544,
        "Time(s)": 24
    },
    {
        "Altitude(m)": 702693.8653680404,
        "Argument of Periapsis(deg)": 0.0014987001561351404,
        "Eccentricity": 0.0,
        "Inclination(deg)": 45.0,
        "Latitude(deg)": 10.438897628536827,
        "Longitude(deg)": -35.63411451108691,
        "Mean Anomaly(deg)": -194.84607149375253,
        "RAAN(deg)": 254.9985852708608,
        "Satellite Name": "Constellation 1 1132",
        "Satellite Number": 1132,
        "Semi-Major Axis(m)": 7083131.272910544,
        "Time(s)": 25
    },
    {
        "Altitude(m)": 702694.5008075931,
        "Argument of Periapsis(deg)": 0.001558648162380546,
        "Eccentricity": 0.0,
        "Inclination(deg)": 45.0,
        "Latitude(deg)": 10.396411873128923,
        "Longitude(deg)": -35.593913999774514,
        "Mean Anomaly(deg)": -194.78537035350263,
        "RAAN(deg)": 254.99852868169523,
        "Satellite Name": "Constellation 1 1132",
        "Satellite Number": 1132,
        "Semi-Major Axis(m)": 7083131.272910544,
        "Time(s)": 26
    },
    {
        "Altitude(m)": 702695.1557373966,
        "Argument of Periapsis(deg)": 0.0016185961686259519,
        "Eccentricity": 0.0,
        "Inclination(deg)": 45.0,
        "Latitude(deg)": 10.353919928359621,
        "Longitude(deg)": -35.5537255004545,
        "Mean Anomaly(deg)": -194.7246692132527,
        "RAAN(deg)": 254.99847209252962,
        "Satellite Name": "Constellation 1 1132",
        "Satellite Number": 1132,
        "Semi-Major Axis(m)": 7083131.272910544,
        "Time(s)": 27
    },
    {
        "Altitude(m)": 702695.8301729006,
        "Argument of Periapsis(deg)": 0.0016785441748713573,
        "Eccentricity": 0.0,
        "Inclination(deg)": 45.0,
        "Latitude(deg)": 10.31142182194194,
        "Longitude(deg)": -35.513548961709546,
        "Mean Anomaly(deg)": -194.66396807300282,
        "RAAN(deg)": 254.99841550336407,
        "Satellite Name": "Constellation 1 1132",
        "Satellite Number": 1132,
        "Semi-Major Axis(m)": 7083131.272910544,
        "Time(s)": 28
    },
    {
        "Altitude(m)": 702696.5241294632,
        "Argument of Periapsis(deg)": 0.001738492181116763,
        "Eccentricity": 0.0,
        "Inclination(deg)": 45.0,
        "Latitude(deg)": 10.268917581565683,
        "Longitude(deg)": -35.47338433214646,
        "Mean Anomaly(deg)": -194.60326693275292,
        "RAAN(deg)": 254.99835891419852,
        "Satellite Name": "Constellation 1 1132",
        "Satellite Number": 1132,
        "Semi-Major Axis(m)": 7083131.272910544,
        "Time(s)": 29
    },
    {
        "Altitude(m)": 702697.237622367,
        "Argument of Periapsis(deg)": 0.0017984401873621684,
        "Eccentricity": 0.0,
        "Inclination(deg)": 45.0,
        "Latitude(deg)": 10.226407234897588,
        "Longitude(deg)": -35.43323172849343,
        "Mean Anomaly(deg)": -194.54256579250304,
        "RAAN(deg)": 254.99830232503294,
        "Satellite Name": "Constellation 1 1132",
        "Satellite Number": 1132,
        "Semi-Major Axis(m)": 7083131.272910544,
        "Time(s)": 30
    },
    {
        "Altitude(m)": 702697.9706667995,
        "Argument of Periapsis(deg)": 0.0018583881936075745,
        "Eccentricity": 0.0,
        "Inclination(deg)": 45.0,
        "Latitude(deg)": 10.1838908095821,
        "Longitude(deg)": -35.39309076321146,
        "Mean Anomaly(deg)": -194.48186465225314,
        "RAAN(deg)": 254.99824573586733,
        "Satellite Name": "Constellation 1 1132",
        "Satellite Number": 1132,
        "Semi-Major Axis(m)": 7083131.272910544,
        "Time(s)": 31
    },
    {
        "Altitude(m)": 702698.7232778743,
        "Argument of Periapsis(deg)": 0.0019183361998529795,
        "Eccentricity": 0.0,
        "Inclination(deg)": 45.0,
        "Latitude(deg)": 10.141368333240308,
        "Longitude(deg)": -35.35296155307675,
        "Mean Anomaly(deg)": -194.4211635120032,
        "RAAN(deg)": 254.99818914670178,
        "Satellite Name": "Constellation 1 1132",
        "Satellite Number": 1132,
        "Semi-Major Axis(m)": 7083131.272910544,
        "Time(s)": 32
    },
    {
        "Altitude(m)": 702699.495470624,
        "Argument of Periapsis(deg)": 0.0019782842060983856,
        "Eccentricity": 0.0,
        "Inclination(deg)": 45.0,
        "Latitude(deg)": 10.098839833470699,
        "Longitude(deg)": -35.31284404679231,
        "Mean Anomaly(deg)": -194.36046237175333,
        "RAAN(deg)": 254.99813255753622,
        "Satellite Name": "Constellation 1 1132",
        "Satellite Number": 1132,
        "Semi-Major Axis(m)": 7083131.272910544,
        "Time(s)": 33
    },
    {
        "Altitude(m)": 702700.2872599851,
        "Argument of Periapsis(deg)": 0.0020382322123437906,
        "Eccentricity": 0.0,
        "Inclination(deg)": 45.0,
        "Latitude(deg)": 10.056305337849293,
        "Longitude(deg)": -35.27273819308509,
        "Mean Anomaly(deg)": -194.29976123150342,
        "RAAN(deg)": 254.99807596837067,
        "Satellite Name": "Constellation 1 1132",
        "Satellite Number": 1132,
        "Semi-Major Axis(m)": 7083131.272910544,
        "Time(s)": 34
    },
    {
        "Altitude(m)": 702701.0986608197,
        "Argument of Periapsis(deg)": 0.002098180218589197,
        "Eccentricity": 0.0,
        "Inclination(deg)": 45.0,
        "Latitude(deg)": 10.013764873929595,
        "Longitude(deg)": -35.232643940705884,
        "Mean Anomaly(deg)": -194.2390600912535,
        "RAAN(deg)": 254.9980193792051,
        "Satellite Name": "Constellation 1 1132",
        "Satellite Number": 1132,
        "Semi-Major Axis(m)": 7083131.272910544,
        "Time(s)": 35
    },
    {
        "Altitude(m)": 702701.9296879017,
        "Argument of Periapsis(deg)": 0.002158128224834602,
        "Eccentricity": 0.0,
        "Inclination(deg)": 45.0,
        "Latitude(deg)": 9.97121846924279,
        "Longitude(deg)": -35.19256123842902,
        "Mean Anomaly(deg)": -194.1783589510036,
        "RAAN(deg)": 254.99796279003948,
        "Satellite Name": "Constellation 1 1132",
        "Satellite Number": 1132,
        "Semi-Major Axis(m)": 7083131.272910544,
        "Time(s)": 36
    },
    {
        "Altitude(m)": 702702.7803559249,
        "Argument of Periapsis(deg)": 0.002218076231080008,
        "Eccentricity": 0.0,
        "Inclination(deg)": 45.0,
        "Latitude(deg)": 9.928666151297527,
        "Longitude(deg)": -35.15249020314951,
        "Mean Anomaly(deg)": -194.1176578107538,
        "RAAN(deg)": 254.99790620087393,
        "Satellite Name": "Constellation 1 1132",
        "Satellite Number": 1132,
        "Semi-Major Axis(m)": 7083131.272910544,
        "Time(s)": 37
    }
]